ONEWEB-0034             
1 45454U 20020AG  26085.41981006 -.00000382  00000+0 -11129-2 0  9996
2 45454  87.8896  37.5088 0001904  80.9717 279.1627 13.11416048291743
ONEWEB-0060             
1 45455U 20020AH  26085.39098897  .00000605  00000+0  16723-2 0  9992
2 45455  87.8892  37.5240 0002150 109.7443 250.3917 13.11416332291693
ONEWEB-0086             
1 45456U 20020AJ  26085.36979347 -.00000045  00000+0 -16324-3 0  9996
2 45456  87.8901  37.5173 0002468  93.0972 267.0438 13.11419285291754
ONEWEB-0088             
1 45457U 20020AK  26085.34775027 -.00000451  00000+0 -13093-2 0  9994
2 45457  87.8909  37.4874 0001528  76.0566 284.0732 13.11409750291680
ONEWEB-0102             
1 47258U 20100A   26085.34039267 -.00000374  00000+0 -10755-2 0  9999
2 47258  87.9013   7.1281 0001993  82.7223 277.4132 13.12444060253866
ONEWEB-0109             
1 47259U 20100B   26085.50134705 -.00000315  00000+0 -91009-3 0  9998
2 47259  87.9019   7.0722 0001922  76.1497 283.9845 13.12444272253716
ONEWEB-0110             
1 47260U 20100C   26085.29974198  .00000487  00000+0  13171-2 0  9995
2 47260  87.9018   7.0968 0001992  85.3621 274.7735 13.12442902253856
ONEWEB-0111             
1 47261U 20100D   26085.33023239 -.00000082  00000+0 -26294-3 0  9996
2 47261  87.9016   7.1092 0001746  82.0862 278.0465 13.12443456253696
ONEWEB-0114             
1 47262U 20100E   26085.28449222 -.00000054  00000+0 -18443-3 0  9991
2 47262  87.9021   7.1140 0001857  70.0796 290.0532 13.12445155253645
ONEWEB-0117             
1 47263U 20100F   26085.50472565 -.00000358  00000+0 -10317-2 0  9991
2 47263  87.9018   7.0641 0001836  78.7969 281.3366 13.12444386253688
ONEWEB-0118             
1 47264U 20100G   26085.30991298  .00000449  00000+0  12136-2 0  9999
2 47264  87.9015   7.1054 0001690  68.5760 291.5549 13.12443338253850
ONEWEB-0119             
1 47265U 20100H   26085.33531539 -.00000271  00000+0 -78859-3 0  9991
2 47265  87.9009   7.1242 0001778  77.6679 282.4648 13.12443638253830
ONEWEB-0120             
1 47266U 20100J   26085.28293498 -.00000116  00000+0 -35799-3 0  9999
2 47266  87.9009   7.1355 0001861  75.7606 284.3729 13.12445221253851
ONEWEB-0121             
1 47267U 20100K   26085.49964435 -.00000377  00000+0 -10833-2 0  9999
2 47267  87.9016   7.0701 0001842  83.9919 276.1420 13.12444442253795
ONEWEB-0122             
1 47268U 20100L   26085.26500554 -.00000381  00000+0 -10947-2 0  9994
2 47268  87.9027   7.1198 0001990  78.2239 281.9112 13.12442895253674
ONEWEB-0123             
1 47269U 20100M   26085.33700576 -.00000302  00000+0 -87427-3 0  9990
2 47269  87.9011   7.1227 0001692  75.7592 284.3724 13.12443572253820
ONEWEB-0124             
1 47270U 20100N   26085.32684616  .00000000  00000+0 -35879-4 0  9996
2 47270  87.9004   7.1293 0001709  81.6394 278.4928 13.12443264253707
