[{"OBJECT_NAME":"ONEWEB-0034","OBJECT_ID":"2020-020AG","EPOCH":"2026-03-26T10:04:31.589184","MEAN_MOTION":13.11416048,"ECCENTRICITY":0.0001904,"INCLINATION":87.8896,"RA_OF_ASC_NODE":37.5088,"ARG_OF_PERICENTER":80.9717,"MEAN_ANOMALY":279.1627,"EPHEMERIS_TYPE":0,"CLASSIFICATION_TYPE":"U","NORAD_CAT_ID":45454,"ELEMENT_SET_NO":999,"REV_AT_EPOCH":29174,"BSTAR":-0.0011129,"MEAN_MOTION_DOT":-3.82e-6,"MEAN_MOTION_DDOT":0},{"OBJECT_NAME":"ONEWEB-0060","OBJECT_ID":"2020-020AH","EPOCH":"2026-03-26T09:23:01.447008","MEAN_MOTION":13.11416332,"ECCENTRICITY":0.000215,"INCLINATION":87.8892,"RA_OF_ASC_NODE":37.524,"ARG_OF_PERICENTER":109.7443,"MEAN_ANOMALY":250.3917,"EPHEMERIS_TYPE":0,"CLASSIFICATION_TYPE":"U","NORAD_CAT_ID":45455,"ELEMENT_SET_NO":999,"REV_AT_EPOCH":29169,"BSTAR":0.0016723,"MEAN_MOTION_DOT":6.05e-6,"MEAN_MOTION_DDOT":0},{"OBJECT_NAME":"ONEWEB-0086","OBJECT_ID":"2020-020AJ","EPOCH":"2026-03-26T08:52:30.155808","MEAN_MOTION":13.11419285,"ECCENTRICITY":0.0002468,"INCLINATION":87.8901,"RA_OF_ASC_NODE":37.5173,"ARG_OF_PERICENTER":93.0972,"MEAN_ANOMALY":267.0438,"EPHEMERIS_TYPE":0,"CLASSIFICATION_TYPE":"U","NORAD_CAT_ID":45456,"ELEMENT_SET_NO":999,"REV_AT_EPOCH":29175,"BSTAR":-0.00016324,"MEAN_MOTION_DOT":-4.5e-7,"MEAN_MOTION_DDOT":0},{"OBJECT_NAME":"ONEWEB-0088","OBJECT_ID":"2020-020AK","EPOCH":"2026-03-26T08:20:45.623328","MEAN_MOTION":13.1140975,"ECCENTRICITY":0.0001528,"INCLINATION":87.8909,"RA_OF_ASC_NODE":37.4874,"ARG_OF_PERICENTER":76.0566,"MEAN_ANOMALY":284.0732,"EPHEMERIS_TYPE":0,"CLASSIFICATION_TYPE":"U","NORAD_CAT_ID":45457,"ELEMENT_SET_NO":999,"REV_AT_EPOCH":29168,"BSTAR":-0.0013093,"MEAN_MOTION_DOT":-4.51e-6,"MEAN_MOTION_DDOT":0},{"OBJECT_NAME":"ONEWEB-0102","OBJECT_ID":"2020-100A","EPOCH":"2026-03-26T08:10:09.926688","MEAN_MOTION":13.1244406,"ECCENTRICITY":0.0001993,"INCLINATION":87.9013,"RA_OF_ASC_NODE":7.1281,"ARG_OF_PERICENTER":82.7223,"MEAN_ANOMALY":277.4132,"EPHEMERIS_TYPE":0,"CLASSIFICATION_TYPE":"U","NORAD_CAT_ID":47258,"ELEMENT_SET_NO":999,"REV_AT_EPOCH":25386,"BSTAR":-0.0010755,"MEAN_MOTION_DOT":-3.74e-6,"MEAN_MOTION_DDOT":0},{"OBJECT_NAME":"ONEWEB-0109","OBJECT_ID":"2020-100B","EPOCH":"2026-03-26T12:01:56.385120","MEAN_MOTION":13.12444272,"ECCENTRICITY":0.0001922,"INCLINATION":87.9019,"RA_OF_ASC_NODE":7.0722,"ARG_OF_PERICENTER":76.1497,"MEAN_ANOMALY":283.9845,"EPHEMERIS_TYPE":0,"CLASSIFICATION_TYPE":"U","NORAD_CAT_ID":47259,"ELEMENT_SET_NO":999,"REV_AT_EPOCH":25371,"BSTAR":-0.00091009,"MEAN_MOTION_DOT":-3.15e-6,"MEAN_MOTION_DDOT":0},{"OBJECT_NAME":"ONEWEB-0110","OBJECT_ID":"2020-100C","EPOCH":"2026-03-26T07:11:37.707072","MEAN_MOTION":13.12442902,"ECCENTRICITY":0.0001992,"INCLINATION":87.9018,"RA_OF_ASC_NODE":7.0968,"ARG_OF_PERICENTER":85.3621,"MEAN_ANOMALY":274.7735,"EPHEMERIS_TYPE":0,"CLASSIFICATION_TYPE":"U","NORAD_CAT_ID":47260,"ELEMENT_SET_NO":999,"REV_AT_EPOCH":25385,"BSTAR":0.0013171,"MEAN_MOTION_DOT":4.87e-6,"MEAN_MOTION_DDOT":0},{"OBJECT_NAME":"ONEWEB-0111","OBJECT_ID":"2020-100D","EPOCH":"2026-03-26T07:55:32.078496","MEAN_MOTION":13.12443456,"ECCENTRICITY":0.0001746,"INCLINATION":87.9016,"RA_OF_ASC_NODE":7.1092,"ARG_OF_PERICENTER":82.0862,"MEAN_ANOMALY":278.0465,"EPHEMERIS_TYPE":0,"CLASSIFICATION_TYPE":"U","NORAD_CAT_ID":47261,"ELEMENT_SET_NO":999,"REV_AT_EPOCH":25369,"BSTAR":-0.00026294,"MEAN_MOTION_DOT":-8.2e-7,"MEAN_MOTION_DDOT":0},{"OBJECT_NAME":"ONEWEB-0114","OBJECT_ID":"2020-100E","EPOCH":"2026-03-26T06:49:40.127808","MEAN_MOTION":13.12445155,"ECCENTRICITY":0.0001857,"INCLINATION":87.9021,"RA_OF_ASC_NODE":7.114,"ARG_OF_PERICENTER":70.0796,"MEAN_ANOMALY":290.0532,"EPHEMERIS_TYPE":0,"CLASSIFICATION_TYPE":"U","NORAD_CAT_ID":47262,"ELEMENT_SET_NO":999,"REV_AT_EPOCH":25364,"BSTAR":-0.00018443,"MEAN_MOTION_DOT":-5.4e-7,"MEAN_MOTION_DDOT":0},{"OBJECT_NAME":"ONEWEB-0117","OBJECT_ID":"2020-100F","EPOCH":"2026-03-26T12:06:48.296160","MEAN_MOTION":13.12444386,"ECCENTRICITY":0.0001836,"INCLINATION":87.9018,"RA_OF_ASC_NODE":7.0641,"ARG_OF_PERICENTER":78.7969,"MEAN_ANOMALY":281.3366,"EPHEMERIS_TYPE":0,"CLASSIFICATION_TYPE":"U","NORAD_CAT_ID":47263,"ELEMENT_SET_NO":999,"REV_AT_EPOCH":25368,"BSTAR":-0.0010317,"MEAN_MOTION_DOT":-3.58e-6,"MEAN_MOTION_DDOT":0},{"OBJECT_NAME":"ONEWEB-0118","OBJECT_ID":"2020-100G","EPOCH":"2026-03-26T07:26:16.481472","MEAN_MOTION":13.12443338,"ECCENTRICITY":0.000169,"INCLINATION":87.9015,"RA_OF_ASC_NODE":7.1054,"ARG_OF_PERICENTER":68.576,"MEAN_ANOMALY":291.5549,"EPHEMERIS_TYPE":0,"CLASSIFICATION_TYPE":"U","NORAD_CAT_ID":47264,"ELEMENT_SET_NO":999,"REV_AT_EPOCH":25385,"BSTAR":0.0012136,"MEAN_MOTION_DOT":4.49e-6,"MEAN_MOTION_DDOT":0},{"OBJECT_NAME":"ONEWEB-0119","OBJECT_ID":"2020-100H","EPOCH":"2026-03-26T08:02:51.249696","MEAN_MOTION":13.12443638,"ECCENTRICITY":0.0001778,"INCLINATION":87.9009,"RA_OF_ASC_NODE":7.1242,"ARG_OF_PERICENTER":77.6679,"MEAN_ANOMALY":282.4648,"EPHEMERIS_TYPE":0,"CLASSIFICATION_TYPE":"U","NORAD_CAT_ID":47265,"ELEMENT_SET_NO":999,"REV_AT_EPOCH":25383,"BSTAR":-0.00078859,"MEAN_MOTION_DOT":-2.71e-6,"MEAN_MOTION_DDOT":0},{"OBJECT_NAME":"ONEWEB-0120","OBJECT_ID":"2020-100J","EPOCH":"2026-03-26T06:47:25.582272","MEAN_MOTION":13.12445221,"ECCENTRICITY":0.0001861,"INCLINATION":87.9009,"RA_OF_ASC_NODE":7.1355,"ARG_OF_PERICENTER":75.7606,"MEAN_ANOMALY":284.3729,"EPHEMERIS_TYPE":0,"CLASSIFICATION_TYPE":"U","NORAD_CAT_ID":47266,"ELEMENT_SET_NO":999,"REV_AT_EPOCH":25385,"BSTAR":-0.00035799,"MEAN_MOTION_DOT":-1.16e-6,"MEAN_MOTION_DDOT":0},{"OBJECT_NAME":"ONEWEB-0121","OBJECT_ID":"2020-100K","EPOCH":"2026-03-26T11:59:29.271840","MEAN_MOTION":13.12444442,"ECCENTRICITY":0.0001842,"INCLINATION":87.9016,"RA_OF_ASC_NODE":7.0701,"ARG_OF_PERICENTER":83.9919,"MEAN_ANOMALY":276.142,"EPHEMERIS_TYPE":0,"CLASSIFICATION_TYPE":"U","NORAD_CAT_ID":47267,"ELEMENT_SET_NO":999,"REV_AT_EPOCH":25379,"BSTAR":-0.0010833,"MEAN_MOTION_DOT":-3.77e-6,"MEAN_MOTION_DDOT":0},{"OBJECT_NAME":"ONEWEB-0122","OBJECT_ID":"2020-100L","EPOCH":"2026-03-26T06:21:36.478656","MEAN_MOTION":13.12442895,"ECCENTRICITY":0.000199,"INCLINATION":87.9027,"RA_OF_ASC_NODE":7.1198,"ARG_OF_PERICENTER":78.2239,"MEAN_ANOMALY":281.9112,"EPHEMERIS_TYPE":0,"CLASSIFICATION_TYPE":"U","NORAD_CAT_ID":47268,"ELEMENT_SET_NO":999,"REV_AT_EPOCH":25367,"BSTAR":-0.0010947,"MEAN_MOTION_DOT":-3.81e-6,"MEAN_MOTION_DDOT":0},{"OBJECT_NAME":"ONEWEB-0123","OBJECT_ID":"2020-100M","EPOCH":"2026-03-26T08:05:17.297664","MEAN_MOTION":13.12443572,"ECCENTRICITY":0.0001692,"INCLINATION":87.9011,"RA_OF_ASC_NODE":7.1227,"ARG_OF_PERICENTER":75.7592,"MEAN_ANOMALY":284.3724,"EPHEMERIS_TYPE":0,"CLASSIFICATION_TYPE":"U","NORAD_CAT_ID":47269,"ELEMENT_SET_NO":999,"REV_AT_EPOCH":25382,"BSTAR":-0.00087427,"MEAN_MOTION_DOT":-3.02e-6,"MEAN_MOTION_DDOT":0},{"OBJECT_NAME":"ONEWEB-0124","OBJECT_ID":"2020-100N","EPOCH":"2026-03-26T07:50:39.508224","MEAN_MOTION":13.12443264,"ECCENTRICITY":0.0001709,"INCLINATION":87.9004,"RA_OF_ASC_NODE":7.1293,"ARG_OF_PERICENTER":81.6394,"MEAN_ANOMALY":278.4928,"EPHEMERIS_TYPE":0,"CLASSIFICATION_TYPE":"U","NORAD_CAT_ID":47270,"ELEMENT_SET_NO":999,"REV_AT_EPOCH":25370,"BSTAR":-3.5879e-5,"MEAN_MOTION_DOT":0,"MEAN_MOTION_DDOT":0}]
